$$SOE
2461281.500000000, A.D. 2026-Aug-29 00:00:00.0000, 5.487056764933970E+07, -3.448416030983117E+08, -1.074443411959089E+08,
2461288.500000000, A.D. 2026-Sep-05 00:00:00.0000, 5.921011168341834E+07, -3.386875639570384E+08, -1.019886545198617E+08,
2461295.500000000, A.D. 2026-Sep-12 00:00:00.0000, 6.348728656544713E+07, -3.321769957560496E+08, -9.642563456738001E+07,
2461302.500000000, A.D. 2026-Sep-19 00:00:00.0000, 6.769352825703211E+07, -3.252955556282243E+08, -9.075498965333316E+07,
2461309.500000000, A.D. 2026-Sep-26 00:00:00.0000, 7.181926573563895E+07, -3.180275578846876E+08, -8.497653746631414E+07,
2461316.500000000, A.D. 2026-Oct-03 00:00:00.0000, 7.585374715926765E+07, -3.103557983200953E+08, -7.909024751144825E+07,
2461323.500000000, A.D. 2026-Oct-10 00:00:00.0000, 7.978482773537974E+07, -3.022613480867981E+08, -7.309629623364450E+07,
2461330.500000000, A.D. 2026-Oct-17 00:00:00.0000, 8.359870885454918E+07, -2.937233105673541E+08, -6.699513906433718E+07,
2461337.500000000, A.D. 2026-Oct-24 00:00:00.0000, 8.727961453611380E+07, -2.847185330651475E+08, -6.078760526739460E+07,
2461344.500000000, A.D. 2026-Oct-31 00:00:00.0000, 9.080938644495045E+07, -2.752212630746322E+08, -5.447502383226642E+07,
2461351.500000000, A.D. 2026-Nov-07 00:00:00.0000, 9.416697209526563E+07, -2.652027360799162E+08, -4.805939213808629E+07,
2461358.500000000, A.D. 2026-Nov-14 00:00:00.0000, 9.732777083108054E+07, -2.546306776312143E+08, -4.154360419364141E+07,
2461365.500000000, A.D. 2026-Nov-21 00:00:00.0000, 1.002627857398807E+08, -2.434686984214489E+08, -3.493176291276748E+07,
2461372.500000000, A.D. 2026-Nov-28 00:00:00.0000, 1.029375090802515E+08, -2.316755596452393E+08, -2.822961334938417E+07,
2461379.500000000, A.D. 2026-Dec-05 00:00:00.0000, 1.053104411066473E+08, -2.192042777469775E+08, -2.144515311896276E+07,
2461386.500000000, A.D. 2026-Dec-12 00:00:00.0000, 1.073310889141050E+08, -2.060010282326272E+08, -1.458950637780064E+07,
2461393.500000000, A.D. 2026-Dec-19 00:00:00.0000, 1.089372114783428E+08, -1.920038082928052E+08, -7.678198680433244E+06,
2461400.500000000, A.D. 2026-Dec-26 00:00:00.0000, 1.100509526665412E+08, -1.771408249633986E+08, -7.330567311168760E+05,
2461407.500000000, A.D. 2027-Jan-02 00:00:00.0000, 1.105732967700347E+08, -1.613286064976753E+08, 6.214891636807859E+06,
2461414.500000000, A.D. 2027-Jan-09 00:00:00.0000, 1.103759315196901E+08, -1.444699326450330E+08, 1.312086849026031E+07,
2461421.500000000, A.D. 2027-Jan-16 00:00:00.0000, 1.092890042889048E+08, -1.264519490430757E+08, 1.991898800737477E+07,
2461428.500000000, A.D. 2027-Jan-23 00:00:00.0000, 1.070822205941232E+08, -1.071455458996060E+08, 2.650994207316650E+07,
2461435.500000000, A.D. 2027-Jan-30 00:00:00.0000, 1.034349730017428E+08, -8.640898597217450E+07, 3.273961469305298E+07,
2461442.500000000, A.D. 2027-Feb-06 00:00:00.0000, 9.788848621105863E+07, -6.410395807519615E+07, 3.836054560060413E+07,
2461449.500000000, A.D. 2027-Feb-13 00:00:00.0000, 8.977053823200934E+07, -4.014673247457106E+07, 4.296049750641654E+07,
2461456.500000000, A.D. 2027-Feb-20 00:00:00.0000, 7.809154685261007E+07, -1.465736367013992E+07, 4.583104883302639E+07,
2461463.500000000, A.D. 2027-Feb-27 00:00:00.0000, 6.148529734605040E+07, 1.163337256562389E+07, 4.575830108485968E+07,
2461470.500000000, A.D. 2027-Mar-06 00:00:00.0000, 3.860288132699244E+07, 3.648647799587994E+07, 4.091030554968022E+07,
2461477.500000000, A.D. 2027-Mar-13 00:00:00.0000, 9.886262736683456E+06, 5.544490885395390E+07, 2.972060934471294E+07,
2461484.500000000, A.D. 2027-Mar-20 00:00:00.0000, -2.064206695516389E+07, 6.449134943984295E+07, 1.318821289497918E+07,
2461491.500000000, A.D. 2027-Mar-27 00:00:00.0000, -4.844003545087714E+07, 6.422043228764283E+07, -5.417110494135197E+06,
2461498.500000000, A.D. 2027-Apr-03 00:00:00.0000, -7.190320522702785E+07, 5.791111544432512E+07, -2.365931521869462E+07,
2461505.500000000, A.D. 2027-Apr-10 00:00:00.0000, -9.135774554517983E+07, 4.825576426233873E+07, -4.063152417318826E+07,
2461512.500000000, A.D. 2027-Apr-17 00:00:00.0000, -1.075609184278514E+08, 3.683110330273348E+07, -5.617933326070464E+07,
2461519.500000000, A.D. 2027-Apr-24 00:00:00.0000, -1.211900405210135E+08, 2.449947816467366E+07, -7.039335450239398E+07,
2461526.500000000, A.D. 2027-May-01 00:00:00.0000, -1.327654148396781E+08, 1.173881126378950E+07, -8.342021629128182E+07,
2461533.500000000, A.D. 2027-May-08 00:00:00.0000, -1.426748920065587E+08, -1.177298348474942E+06, -9.540372513344139E+07,
2461540.500000000, A.D. 2027-May-15 00:00:00.0000, -1.512089088218234E+08, -1.408716991354038E+07, -1.064696031637997E+08,
2461547.500000000, A.D. 2027-May-22 00:00:00.0000, -1.585882974044961E+08, -2.689285173482417E+07, -1.167238711447178E+08,
2461554.500000000, A.D. 2027-May-29 00:00:00.0000, -1.649840030322942E+08, -3.953405624394513E+07, -1.262550840618652E+08,
2461561.500000000, A.D. 2027-Jun-05 00:00:00.0000, -1.705307176448450E+08, -5.197349031811804E+07, -1.351372775158450E+08,
2461568.500000000, A.D. 2027-Jun-12 00:00:00.0000, -1.753363323504137E+08, -6.418828471186181E+07, -1.434326789128697E+08,
2461575.500000000, A.D. 2027-Jun-19 00:00:00.0000, -1.794885751945661E+08, -7.616481744196686E+07, -1.511939625685471E+08,
2461582.500000000, A.D. 2027-Jun-26 00:00:00.0000, -1.830597483703984E+08, -8.789549486979562E+07, -1.584660574857430E+08,
2461589.500000000, A.D. 2027-Jul-03 00:00:00.0000, -1.861101668656271E+08, -9.937669915912074E+07, -1.652875780707304E+08,
2461596.500000000, A.D. 2027-Jul-10 00:00:00.0000, -1.886906962248731E+08, -1.106074510089031E+08, -1.716919540678498E+08,
2461603.500000000, A.D. 2027-Jul-17 00:00:00.0000, -1.908446550504361E+08, -1.215885224261481E+08, -1.777083257128187E+08,
2461610.500000000, A.D. 2027-Jul-24 00:00:00.0000, -1.926092621259874E+08, -1.323218391694342E+08, -1.833622569256377E+08,
2461617.500000000, A.D. 2027-Jul-31 00:00:00.0000, -1.940167516820186E+08, -1.428100731316358E+08, -1.886763074728409E+08,
2461624.500000000, A.D. 2027-Aug-07 00:00:00.0000, -1.950952436508179E+08, -1.530563603996070E+08, -1.936704952832962E+08,
2461631.500000000, A.D. 2027-Aug-14 00:00:00.0000, -1.958694327134306E+08, -1.630641043976599E+08, -1.983626725895681E+08,
2461638.500000000, A.D. 2027-Aug-21 00:00:00.0000, -1.963611398069167E+08, -1.728368405608322E+08, -2.027688344533206E+08,
2461645.500000000, A.D. 2027-Aug-28 00:00:00.0000, -1.965897549897722E+08, -1.823781433033487E+08, -2.069033738742009E+08,
2461652.500000000, A.D. 2027-Sep-04 00:00:00.0000, -1.965725967487420E+08, -1.916915605226739E+08, -2.107792939538332E+08,
2461659.500000000, A.D. 2027-Sep-11 00:00:00.0000, -1.963252070241371E+08, -2.007805678603297E+08, -2.144083854117680E+08,
2461666.500000000, A.D. 2027-Sep-18 00:00:00.0000, -1.958615953482782E+08, -2.096485374910021E+08, -2.178013760629506E+08,
2461673.500000000, A.D. 2027-Sep-25 00:00:00.0000, -1.951944422103231E+08, -2.182987173800419E+08, -2.209680574371732E+08,
2461680.500000000, A.D. 2027-Oct-02 00:00:00.0000, -1.943352695574152E+08, -2.267342180420864E+08, -2.239173926302926E+08,
2461687.500000000, A.D. 2027-Oct-09 00:00:00.0000, -1.932945846310563E+08, -2.349580046995456E+08, -2.266576086485146E+08,
2461694.500000000, A.D. 2027-Oct-16 00:00:00.0000, -1.920820019633412E+08, -2.429728933775445E+08, -2.291962758723947E+08,
2461701.500000000, A.D. 2027-Oct-23 00:00:00.0000, -1.907063471436176E+08, -2.507815498405094E+08, -2.315403767798597E+08,
2461708.500000000, A.D. 2027-Oct-30 00:00:00.0000, -1.891757450694328E+08, -2.583864899585328E+08, -2.336963656341536E+08,
2461715.500000000, A.D. 2027-Nov-06 00:00:00.0000, -1.874976963282953E+08, -2.657900797887532E+08, -2.356702203470180E+08,
2461722.500000000, A.D. 2027-Nov-13 00:00:00.0000, -1.856791457055365E+08, -2.729945370173438E+08, -2.374674876641971E+08,
2461729.500000000, A.D. 2027-Nov-20 00:00:00.0000, -1.837265415542452E+08, -2.800019356319489E+08, -2.390933230778993E+08,
2461736.500000000, A.D. 2027-Nov-27 00:00:00.0000, -1.816458857534444E+08, -2.868142106275421E+08, -2.405525261699962E+08,
2461743.500000000, A.D. 2027-Dec-04 00:00:00.0000, -1.794427773856361E+08, -2.934331616601878E+08, -2.418495717897158E+08,
2461750.500000000, A.D. 2027-Dec-11 00:00:00.0000, -1.771224516009412E+08, -2.998604564868720E+08, -2.429886376496423E+08,
2461757.500000000, A.D. 2027-Dec-18 00:00:00.0000, -1.746898141553052E+08, -3.060976344391463E+08, -2.439736288607693E+08,
2461764.500000000, A.D. 2027-Dec-25 00:00:00.0000, -1.721494721083305E+08, -3.121461098670629E+08, -2.448081998170198E+08,
2461771.500000000, A.D. 2028-Jan-01 00:00:00.0000, -1.695057611754097E+08, -3.180071754920626E+08, -2.454957737691969E+08,
$$EOE